{"fetched_at":"2026-05-08T02:47:12Z","count":6477,"tles":[{"name":"STARLINK-1892","line1":"1 46743U 20074E   26127.66961013  .00101845  00000+0  10822-2 0  9990","line2":"2 46743  53.0431   7.5810 0004242 196.6224 163.4652 15.63261345306265","category":"Starlink"},{"name":"STARLINK-6325","line1":"1 56789U 23078Y   23361.88619669  .00000829  00000+0  86641-5 0  9991","line2":"2 56789  69.9978 181.1473 0003729 264.9020  95.1750 15.69924431 33775","category":"Starlink"},{"name":"STARLINK-35590","line1":"1 66108U 25236Y   26127.59266111  .00014447  00000+0  49907-3 0  9999","line2":"2 66108  53.1565 190.2157 0001070  73.3570 286.7548 15.30191666 31907","category":"Starlink"},{"name":"CZ-6A DEB","line1":"1 60688U 24140CR  24249.28440493  .00006170  00000+0  27273-2 0  9990","line2":"2 60688  89.0240 347.8620 0032706 161.4307 198.8086 14.22840230  3844","category":"Other"},{"name":"STARLINK-36098","line1":"1 66816U 25278AB  26127.34052361  .00042117  00000+0  15321-2 0  9991","line2":"2 66816  42.9999 142.7278 0001166 275.0917  84.9802 15.27562996 24185","category":"Starlink"},{"name":"INTELSAT 2-F4","line1":"1 02969U 67094A   26105.22643457 -.00000133  00000+0  00000+0 0  9995","line2":"2 02969   3.9179  74.8414 0009752 148.9544 321.8657  1.00379468114683","category":"Other"},{"name":"BREEZE-M R/B","line1":"1 40385U 15005B   26102.67726906 -.00000375  00000+0  00000+0 0  9999","line2":"2 40385  27.2572 279.5317 7561742 121.4816 332.5385  1.11107335 45422","category":"Other"},{"name":"STARLINK-4561","line1":"1 53563U 22101AN  26127.45539742  .00000003  00000+0  18239-4 0  9994","line2":"2 53563  53.2159 150.5352 0000888  85.5339 274.5754 15.08838747205313","category":"Starlink"},{"name":"STARLINK-34115","line1":"1 63972U 25099W   26127.63845139  .00026797  00000+0  97885-3 0  9999","line2":"2 63972  42.9995 199.6809 0001324 273.5965  86.4735 15.27610682 56390","category":"Starlink"},{"name":"STARLINK-2361","line1":"1 47901U 21021AT  26127.60493013  .00044345  00000+0  12807-2 0  9990","line2":"2 47901  53.1587 340.8078 0002707 176.9421 183.1599 15.35250341285457","category":"Starlink"},{"name":"STARLINK-30257","line1":"1 57526U 23115F   26127.42901082 -.00001250  00000+0 -35944-4 0  9999","line2":"2 57526  43.0042  29.9838 0000579 306.5380  53.5418 15.27564580151337","category":"Starlink"},{"name":"COSMOS 2251 DEB","line1":"1 34561U 93036UX  23178.58158483  .00011642  00000+0  21061-2 0  9998","line2":"2 34561  74.0291 262.6616 0031603 216.1861 143.7170 14.66102311756939","category":"Other"},{"name":"STARLINK-3207","line1":"1 49756U 21115AJ  26127.70698980  .00000090  00000+0  23743-4 0  9997","line2":"2 49756  53.2166 234.1827 0001178  89.7988 270.3140 15.08838743244586","category":"Starlink"},{"name":"STARLINK-31131","line1":"1 58673U 23211G   26127.31352955  .00000191  00000+0  16463-4 0  9993","line2":"2 58673  43.0034 103.4055 0001141 250.5295 109.5433 15.27574399132832","category":"Starlink"},{"name":"STARLINK-32524","line1":"1 62159U 24224W   26127.56160066  .00012847  00000+0  47547-3 0  9996","line2":"2 62159  43.0032 189.0977 0001750 280.2374  79.8280 15.27587436 81288","category":"Starlink"},{"name":"STARLINK-36730","line1":"1 67874U 26034AA  26127.75003471  .00003515  00000+0  11163-3 0  9990","line2":"2 67874  53.1590 288.6262 0001152  68.6153  23.5903 15.35396493  5891","category":"Starlink"},{"name":"ARIANE 5 R/B","line1":"1 26496U 00054C   26104.60933036  .00000028  00000+0 -22269-3 0  9993","line2":"2 26496   6.8634 244.6817 7177412 239.1514  32.2603  2.24229510209545","category":"Other"},{"name":"STARLINK-1020","line1":"1 44725U 19074N   26126.46214386  .00066706  00000+0  11581-2 0  9996","line2":"2 44725  53.1612 293.2632 0000943  37.0101 323.0973 15.50252167357373","category":"Starlink"},{"name":"STARLINK-5077","line1":"1 55391U 23014A   23362.13547616  .00000710  00000+0  68679-4 0  9999","line2":"2 55391  70.0006 287.0535 0002309 266.1217  93.9677 14.97510670 50924","category":"Starlink"},{"name":"HULIANWANG DIGUI-51","line1":"1 65108U 25168C   26127.69762763 -.00000090  00000+0  73103-4 0  9993","line2":"2 65108  50.0018 111.0498 0010604 326.7583  33.2622 13.29318979 37308","category":"Other"},{"name":"ASTRA 1N","line1":"1 37775U 11041A   26127.69206468  .00000128  00000+0  00000+0 0  9994","line2":"2 37775   0.1209  57.9329 0005786   3.6256  72.3251  1.00272401 44124","category":"Other"},{"name":"STARLINK-4084","line1":"1 52657U 22053B   26127.61645109  .00000364  00000+0  40928-4 0  9996","line2":"2 52657  53.2188 249.9056 0001101  90.8162 269.2956 15.08832949220303","category":"Starlink"},{"name":"STARLINK-31681","line1":"1 59746U 24090S   26127.49319091  .00000769  00000+0  37471-4 0  9997","line2":"2 59746  42.9978 204.4554 0001194 260.6480  99.4236 15.27579777112517","category":"Starlink"},{"name":"STARLINK-11641 [DTC]","line1":"1 63268U 25053D   26127.31601049  .00146876  00000+0  11223-2 0  9994","line2":"2 63268  43.0018 118.5105 0002444 262.1953  97.8638 15.70960748 66893","category":"Starlink"},{"name":"KUIPER-00388","line1":"1 68922U 26098D   26127.75003471  .00027990  00000+0  90763-3 0  9991","line2":"2 68922  51.8746 262.6728 0020467   6.6217  26.2222 15.31574694  1758","category":"Other"},{"name":"FENGYUN 1C DEB","line1":"1 30659U 99025APR 23178.80807004  .00032851  00000+0  20484-2 0  9994","line2":"2 30659  99.0552 194.1092 0105506  40.2334 320.6637 15.04877047881359","category":"Weather"},{"name":"2023-081H","line1":"1 56853U 23081H   23362.48398277  .00020722  00000+0  73707-3 0  9994","line2":"2 56853  97.4024  74.6861 0011776 296.2353  63.7676 15.28943103 31127","category":"Other"},{"name":"STARLINK-35634","line1":"1 66173U 25240AD  26127.75003471 -.00023127  00000+0 -69350-3 0  9993","line2":"2 66173  53.1589 148.2274 0001179  88.9048 293.0178 15.33572725  5891","category":"Starlink"},{"name":"CZ-6A DEB","line1":"1 60753U 24140EC  24249.28503357  .00007395  00000+0  42411-2 0  9993","line2":"2 60753  89.0871 348.2324 0116326 112.7738 248.5784 14.05935668  2254","category":"Other"},{"name":"STARLINK-35844","line1":"1 66880U 25283C   26127.51913457  .00015756  00000+0  54298-3 0  9995","line2":"2 66880  53.1574 110.7394 0001277  87.8715 272.2432 15.30199963 24850","category":"Starlink"},{"name":"EXPLORER 50 (IMP-8)","line1":"1 06893U 73078A   25196.57914163 -.00001058  00000+0  00000+0 0  9993","line2":"2 06893   9.0739 118.5325 1991774 108.5150   0.8671  0.08284795 11624","category":"Other"},{"name":"CZ-3B DEB","line1":"1 40838U 11077T   26091.55235966  .00001502  00000+0  52901-2 0  9994","line2":"2 40838  26.0186 248.7751 7476354 209.3136  71.0433  1.95826673 78743","category":"Other"},{"name":"STARLINK-4586","line1":"1 53636U 22104BA  26127.08645195  .00022623  00000+0  14331-2 0  9996","line2":"2 53636  53.2164 321.7907 0001124  72.5659 287.5456 15.08888099205041","category":"Starlink"},{"name":"STARLINK-34085","line1":"1 64036U 25102Q   26127.46483793 -.00052478  00000+0 -44177-2 0  9993","line2":"2 64036  70.0054 326.3562 0003179 273.3161  86.7635 14.98377784 54751","category":"Starlink"},{"name":"FENGYUN 1C DEB","line1":"1 31614U 99025BZU 26083.52469099  .00577598  00000+0  12686-1 0  9997","line2":"2 31614  98.9544  12.1483 0013579  88.2957 271.9840 15.41695919979690","category":"Weather"},{"name":"STARLINK-2308","line1":"1 47985U 21024J   23361.15685774  .00017748  00000+0  12082-2 0  9991","line2":"2 47985  53.0543 278.9836 0001476  74.9563 285.1589 15.06375296154293","category":"Starlink"},{"name":"STARLINK-30263","line1":"1 57642U 23122L   26127.69068367  .00000297  00000+0  20302-4 0  9995","line2":"2 57642  43.0043 119.0162 0000822 276.7677  83.3081 15.27576224151230","category":"Starlink"},{"name":"COSMOS 2251 DEB","line1":"1 34732U 93036ZA  26104.60341919  .00000187  00000+0  58153-4 0  9997","line2":"2 34732  74.0453 223.5658 0039739 341.3797  40.3255 14.47433647899211","category":"Other"},{"name":"STARLINK-3281","line1":"1 50183U 21125AD  26126.89095620  .00006192  00000+0  40723-3 0  9990","line2":"2 50183  53.2184 347.8443 0001470 103.8154 256.3002 15.08797461245433","category":"Starlink"},{"name":"STARLINK-31042","line1":"1 58739U 24005M   26127.60179157  .00001353  00000+0  58684-4 0  9993","line2":"2 58739  43.0009 247.0279 0001495 278.4966  81.5716 15.27577328129458","category":"Starlink"},{"name":"STARLINK-11471 [DTC]","line1":"1 62225U 24231H   26127.57886002  .00132871  00000+0  10841-2 0  9990","line2":"2 62225  53.1576 170.7562 0000905 141.0856 219.0227 15.69710861 82662","category":"Starlink"},{"name":"STARLINK-36371","line1":"1 67938U 26037G   26127.63238041  .00022418  00000+0  82132-3 0  9991","line2":"2 67938  43.0039 217.9934 0001667 287.0342  73.0327 15.27595301 12356","category":"Starlink"},{"name":"ARIANE 2 DEB","line1":"1 27046U 89006AB  26094.34025007 -.00000170  00000+0 -29606-3 0  9999","line2":"2 27046   8.2474  18.5620 7088696 205.6315 338.5165  2.24256975110098","category":"Other"},{"name":"HEAD 2B","line1":"1 44839U 19087B   23362.47039681  .00179087  00000+0  14930-2 0  9997","line2":"2 44839  97.5016 178.3529 0004848  41.0911 319.0715 15.69519709226326","category":"Other"},{"name":"STARLINK-5673","line1":"1 55462U 23015P   26127.66249377 -.00000881  00000+0 -22505-4 0  9991","line2":"2 55462  43.0042 355.4540 0001428 264.8749  95.1939 15.27571991179749","category":"Starlink"},{"name":"STARLINK-34932","line1":"1 65179U 25175F   26127.54266049  .00005944  00000+0  41560-3 0  9992","line2":"2 65179  97.5241   0.5260 0001955  83.8845 276.2604 15.05662889 41492","category":"Starlink"},{"name":"COSMOS 2251 DEB","line1":"1 37959U 93036BPJ 26104.51534498  .00001132  00000+0  24229-3 0  9994","line2":"2 37959  74.0106 182.8155 0058901 293.3730  81.2366 14.58927256819174","category":"Other"},{"name":"LEMUR-2-HANCOM-1","line1":"1 52740U 22057J   23361.83745952  .00048011  00000+0  12769-2 0  9992","line2":"2 52740  97.5650 122.8154 0006809  35.3602 324.8093 15.38057939 88327","category":"Other"}]}